[{"OBJECT_NAME":"STARLINK-3201","OBJECT_ID":"2021-115AZ","EPOCH":"2026-03-09T11:16:45.144480","MEAN_MOTION":15.08836744,"ECCENTRICITY":0.00013148,"INCLINATION":53.2162,"RA_OF_ASC_NODE":140.1106,"ARG_OF_PERICENTER":83.0787,"MEAN_ANOMALY":277.0355,"EPHEMERIS_TYPE":0,"CLASSIFICATION_TYPE":"U","NORAD_CAT_ID":49771,"ELEMENT_SET_NO":999,"REV_AT_EPOCH":23564,"BSTAR":8.230135e-6,"MEAN_MOTION_DOT":-1.57e-6,"MEAN_MOTION_DDOT":0},{"OBJECT_NAME":"DMSP 5D-2 F11 DEB","OBJECT_ID":"1991-082AJ","EPOCH":"2026-03-09T06:39:32.486112","MEAN_MOTION":15.08629375,"ECCENTRICITY":0.00070318,"INCLINATION":98.5181,"RA_OF_ASC_NODE":189.4283,"ARG_OF_PERICENTER":237.8685,"MEAN_ANOMALY":152.6153,"EPHEMERIS_TYPE":0,"CLASSIFICATION_TYPE":"U","NORAD_CAT_ID":28321,"ELEMENT_SET_NO":999,"REV_AT_EPOCH":14288,"BSTAR":0.0082823802,"MEAN_MOTION_DOT":0.00131946,"MEAN_MOTION_DDOT":0}]
